[{"OBJECT_NAME":"HULIANWANG DIGUI-75","OBJECT_ID":"2025-187C","EPOCH":"2026-03-09T22:36:36.813600","MEAN_MOTION":13.29342333,"ECCENTRICITY":0.00010165,"INCLINATION":50.0077,"RA_OF_ASC_NODE":201.5768,"ARG_OF_PERICENTER":154.4782,"MEAN_ANOMALY":205.614,"EPHEMERIS_TYPE":0,"CLASSIFICATION_TYPE":"U","NORAD_CAT_ID":65307,"ELEMENT_SET_NO":999,"REV_AT_EPOCH":2650,"BSTAR":0.00011451916,"MEAN_MOTION_DOT":-7.1e-7,"MEAN_MOTION_DDOT":0},{"OBJECT_NAME":"THORAD AGENA D DEB","OBJECT_ID":"1970-025QU","EPOCH":"2026-03-08T14:53:38.686560","MEAN_MOTION":13.53136956,"ECCENTRICITY":0.01164997,"INCLINATION":99.9384,"RA_OF_ASC_NODE":6.5026,"ARG_OF_PERICENTER":357.5602,"MEAN_ANOMALY":2.4952,"EPHEMERIS_TYPE":0,"CLASSIFICATION_TYPE":"U","NORAD_CAT_ID":42490,"ELEMENT_SET_NO":999,"REV_AT_EPOCH":55895,"BSTAR":0.0020438485,"MEAN_MOTION_DOT":1.381e-5,"MEAN_MOTION_DDOT":0}]
